start=new Date('2022-02-01T00:00:00.000Z').valueOf();
sats=[{"MEAN_ANOMALY":"294.6766","CLASSIFICATION_TYPE":"U","FILE":"3288814","ELEMENT_SET_NO":"999","ARG_OF_PERICENTER":"65.4386","OBJECT_ID":"2021-036E","REF_FRAME":"TEME","SITE":"AFETR","TLE_LINE2":"2 48280  53.0560 341.5616 0001565  65.4386 294.6766 15.06397624 42311","NORAD_CAT_ID":"48280","CENTER_NAME":"EARTH","OBJECT_NAME":"STARLINK-2565","OBJECT_TYPE":"PAYLOAD","COUNTRY_CODE":"US","MEAN_MOTION_DOT":"-0.00001055","EPOCH":"2022-01-31T15:38:24.611136","INCLINATION":"53.0560","MEAN_ELEMENT_THEORY":"SGP4","ECCENTRICITY":"0.00015650","MEAN_MOTION":"15.06397624","DECAY_DATE":null,"GP_ID":"195054478","TIME_SYSTEM":"UTC","PERIOD":"95.592","MEAN_MOTION_DDOT":"0.0000000000000","RA_OF_ASC_NODE":"341.5616","RCS_SIZE":"LARGE","SEMIMAJOR_AXIS":"6925.356","APOAPSIS":"548.305","BSTAR":"-0.00005192800000","REV_AT_EPOCH":"4231","EPHEMERIS_TYPE":"0","TLE_LINE1":"1 48280U 21036E   22031.65167374 -.00001055  00000-0 -51928-4 0  9993","PERIAPSIS":"546.137","LAUNCH_DATE":"2021-04-29"},{"SITE":"AFETR","TLE_LINE2":"2 48281  53.0560 320.6206 0001918  64.5818 295.5369 15.06398728 42626","REF_FRAME":"TEME","ARG_OF_PERICENTER":"64.5818","OBJECT_ID":"2021-036F","ELEMENT_SET_NO":"999","CLASSIFICATION_TYPE":"U","FILE":"3288814","MEAN_ANOMALY":"295.5369","MEAN_MOTION":"15.06398728","ECCENTRICITY":"0.00019180","EPOCH":"2022-01-31T20:43:38.734464","INCLINATION":"53.0560","MEAN_ELEMENT_THEORY":"SGP4","MEAN_MOTION_DOT":"0.00008357","OBJECT_TYPE":"PAYLOAD","COUNTRY_CODE":"US","CENTER_NAME":"EARTH","OBJECT_NAME":"STARLINK-2520","NORAD_CAT_ID":"48281","RCS_SIZE":"LARGE","RA_OF_ASC_NODE":"320.6206","MEAN_MOTION_DDOT":"0.0000000000000","PERIOD":"95.592","TIME_SYSTEM":"UTC","DECAY_DATE":null,"GP_ID":"195052729","LAUNCH_DATE":"2021-04-29","PERIAPSIS":"545.889","EPHEMERIS_TYPE":"0","TLE_LINE1":"1 48281U 21036F   22031.86364276  .00008357  00000-0  57930-3 0  9995","REV_AT_EPOCH":"4262","BSTAR":"0.00057930000000","APOAPSIS":"548.546","SEMIMAJOR_AXIS":"6925.352"},{"FILE":"3288814","CLASSIFICATION_TYPE":"U","ELEMENT_SET_NO":"999","MEAN_ANOMALY":"295.2472","REF_FRAME":"TEME","TLE_LINE2":"2 48282  53.0555 325.8221 0001811  64.8705 295.2472 15.06408270 42553","SITE":"AFETR","OBJECT_ID":"2021-036G","ARG_OF_PERICENTER":"64.8705","COUNTRY_CODE":"US","OBJECT_TYPE":"PAYLOAD","NORAD_CAT_ID":"48282","OBJECT_NAME":"STARLINK-2558","CENTER_NAME":"EARTH","ECCENTRICITY":"0.00018110","MEAN_MOTION":"15.06408270","MEAN_MOTION_DOT":"-0.00003000","INCLINATION":"53.0555","MEAN_ELEMENT_THEORY":"SGP4","EPOCH":"2022-01-31T19:41:53.886912","PERIOD":"95.592","TIME_SYSTEM":"UTC","DECAY_DATE":null,"GP_ID":"195053479","RCS_SIZE":"LARGE","MEAN_MOTION_DDOT":"0.0000000000000","RA_OF_ASC_NODE":"325.8221","APOAPSIS":"548.442","BSTAR":"-0.00018254000000","SEMIMAJOR_AXIS":"6925.323","PERIAPSIS":"545.934","LAUNCH_DATE":"2021-04-29","REV_AT_EPOCH":"4255","TLE_LINE1":"1 48282U 21036G   22031.82076258 -.00003000  00000-0 -18254-3 0  9990","EPHEMERIS_TYPE":"0"},{"MEAN_MOTION_DDOT":"0.0000000000000","RA_OF_ASC_NODE":"325.8378","RCS_SIZE":"LARGE","DECAY_DATE":null,"GP_ID":"195053731","TIME_SYSTEM":"UTC","PERIOD":"95.592","REV_AT_EPOCH":"4255","EPHEMERIS_TYPE":"0","TLE_LINE1":"1 48283U 21036H   22031.81707577  .00003660  00000-0  26443-3 0  9994","PERIAPSIS":"545.922","LAUNCH_DATE":"2021-04-29","SEMIMAJOR_AXIS":"6925.334","APOAPSIS":"548.477","BSTAR":"0.00026443000000","ARG_OF_PERICENTER":"59.0059","OBJECT_ID":"2021-036H","REF_FRAME":"TEME","SITE":"AFETR","TLE_LINE2":"2 48283  53.0550 325.8378 0001845  59.0059 301.1111 15.06404638 42558","MEAN_ANOMALY":"301.1111","CLASSIFICATION_TYPE":"U","FILE":"3288814","ELEMENT_SET_NO":"999","MEAN_MOTION_DOT":"0.00003660","EPOCH":"2022-01-31T19:36:35.346528","INCLINATION":"53.0550","MEAN_ELEMENT_THEORY":"SGP4","ECCENTRICITY":"0.00018450","MEAN_MOTION":"15.06404638","NORAD_CAT_ID":"48283","CENTER_NAME":"EARTH","OBJECT_NAME":"STARLINK-2516","OBJECT_TYPE":"PAYLOAD","COUNTRY_CODE":"US"},{"GP_ID":"195053979","DECAY_DATE":null,"TIME_SYSTEM":"UTC","PERIOD":"95.592","RA_OF_ASC_NODE":"325.8366","MEAN_MOTION_DDOT":"0.0000000000000","RCS_SIZE":"LARGE","SEMIMAJOR_AXIS":"6925.338","BSTAR":"0.00000870710000","APOAPSIS":"548.409","TLE_LINE1":"1 48284U 21036J   22031.81339050 -.00000152  00000-0  87071-5 0  9992","EPHEMERIS_TYPE":"0","REV_AT_EPOCH":"4254","LAUNCH_DATE":"2021-04-29","PERIAPSIS":"545.997","MEAN_ANOMALY":"296.9838","ELEMENT_SET_NO":"999","FILE":"3288814","CLASSIFICATION_TYPE":"U","OBJECT_ID":"2021-036J","ARG_OF_PERICENTER":"63.1329","TLE_LINE2":"2 48284  53.0558 325.8366 0001741  63.1329 296.9838 15.06403394 42549","SITE":"AFETR","REF_FRAME":"TEME","OBJECT_NAME":"STARLINK-2564","CENTER_NAME":"EARTH","NORAD_CAT_ID":"48284","COUNTRY_CODE":"US","OBJECT_TYPE":"PAYLOAD","MEAN_ELEMENT_THEORY":"SGP4","INCLINATION":"53.0558","EPOCH":"2022-01-31T19:31:16.939200","MEAN_MOTION_DOT":"-0.00000152","MEAN_MOTION":"15.06403394","ECCENTRICITY":"0.00017410"},{"MEAN_MOTION_DOT":"0.00001623","MEAN_ELEMENT_THEORY":"SGP4","INCLINATION":"53.0561","EPOCH":"2022-01-31T19:25:58.579392","ECCENTRICITY":"0.00016060","MEAN_MOTION":"15.06396684","NORAD_CAT_ID":"48285","OBJECT_NAME":"STARLINK-2548","CENTER_NAME":"EARTH","COUNTRY_CODE":"US","OBJECT_TYPE":"PAYLOAD","OBJECT_ID":"2021-036K","ARG_OF_PERICENTER":"71.3535","REF_FRAME":"TEME","TLE_LINE2":"2 48285  53.0561 325.8583 0001606  71.3535 288.7629 15.06396684 42545","SITE":"AFETR","MEAN_ANOMALY":"288.7629","FILE":"3288814","CLASSIFICATION_TYPE":"U","ELEMENT_SET_NO":"999","REV_AT_EPOCH":"4254","TLE_LINE1":"1 48285U 21036K   22031.80970578  .00001623  00000-0  12782-3 0  9996","EPHEMERIS_TYPE":"0","PERIAPSIS":"546.112","LAUNCH_DATE":"2021-04-29","SEMIMAJOR_AXIS":"6925.359","APOAPSIS":"548.336","BSTAR":"0.00012782000000","MEAN_MOTION_DDOT":"0.0000000000000","RA_OF_ASC_NODE":"325.8583","RCS_SIZE":"LARGE","DECAY_DATE":null,"GP_ID":"195053229","PERIOD":"95.592","TIME_SYSTEM":"UTC"},{"SITE":"AFETR","TLE_LINE2":"2 48286  53.0568 327.0769 0001935  64.0030 296.1158 15.06406437 42501","REF_FRAME":"TEME","ARG_OF_PERICENTER":"64.0030","OBJECT_ID":"2021-036L","ELEMENT_SET_NO":"999","CLASSIFICATION_TYPE":"U","FILE":"3288447","MEAN_ANOMALY":"296.1158","MEAN_MOTION":"15.06406437","ECCENTRICITY":"0.00019350","EPOCH":"2022-01-31T12:58:30.590976","MEAN_ELEMENT_THEORY":"SGP4","INCLINATION":"53.0568","MEAN_MOTION_DOT":"0.00001465","OBJECT_TYPE":"PAYLOAD","COUNTRY_CODE":"US","CENTER_NAME":"EARTH","OBJECT_NAME":"STARLINK-2547","NORAD_CAT_ID":"48286","RCS_SIZE":"LARGE","RA_OF_ASC_NODE":"327.0769","MEAN_MOTION_DDOT":"0.0000000000000","PERIOD":"95.592","TIME_SYSTEM":"UTC","DECAY_DATE":null,"GP_ID":"195020026","LAUNCH_DATE":"2021-04-29","PERIAPSIS":"545.854","EPHEMERIS_TYPE":"0","TLE_LINE1":"1 48286U 21036L   22031.54063184  .00001465  00000-0  11724-3 0  9993","REV_AT_EPOCH":"4250","BSTAR":"0.00011724000000","APOAPSIS":"548.534","SEMIMAJOR_AXIS":"6925.329"},{"MEAN_MOTION":"15.06394211","ECCENTRICITY":"0.00016820","EPOCH":"2022-01-31T19:15:21.933216","INCLINATION":"53.0558","MEAN_ELEMENT_THEORY":"SGP4","MEAN_MOTION_DOT":"0.00001331","OBJECT_TYPE":"PAYLOAD","COUNTRY_CODE":"US","CENTER_NAME":"EARTH","OBJECT_NAME":"STARLINK-2566","NORAD_CAT_ID":"48287","SITE":"AFETR","TLE_LINE2":"2 48287  53.0558 325.8878 0001682  60.7318 299.3839 15.06394211 42540","REF_FRAME":"TEME","ARG_OF_PERICENTER":"60.7318","OBJECT_ID":"2021-036M","ELEMENT_SET_NO":"999","CLASSIFICATION_TYPE":"U","FILE":"3288814","MEAN_ANOMALY":"299.3839","LAUNCH_DATE":"2021-04-29","PERIAPSIS":"546.066","EPHEMERIS_TYPE":"0","TLE_LINE1":"1 48287U 21036M   22031.80233719  .00001331  00000-0  10823-3 0  9997","REV_AT_EPOCH":"4254","BSTAR":"0.00010823000000","APOAPSIS":"548.396","SEMIMAJOR_AXIS":"6925.366","RCS_SIZE":"LARGE","RA_OF_ASC_NODE":"325.8878","MEAN_MOTION_DDOT":"0.0000000000000","PERIOD":"95.593","TIME_SYSTEM":"UTC","DECAY_DATE":null,"GP_ID":"195054231"},{"COUNTRY_CODE":"US","OBJECT_TYPE":"PAYLOAD","OBJECT_NAME":"STARLINK-2562","CENTER_NAME":"EARTH","NORAD_CAT_ID":"48288","MEAN_MOTION":"15.06397702","ECCENTRICITY":"0.00018150","MEAN_ELEMENT_THEORY":"SGP4","INCLINATION":"53.0567","EPOCH":"2022-01-31T12:47:53.902464","MEAN_MOTION_DOT":"0.00000664","ELEMENT_SET_NO":"999","FILE":"3288509","CLASSIFICATION_TYPE":"U","MEAN_ANOMALY":"297.3388","TLE_LINE2":"2 48288  53.0567 327.1088 0001815  62.7786 297.3388 15.06397702 43083","SITE":"AFETR","REF_FRAME":"TEME","OBJECT_ID":"2021-036N","ARG_OF_PERICENTER":"62.7786","BSTAR":"0.00006347400000","APOAPSIS":"548.478","SEMIMAJOR_AXIS":"6925.356","LAUNCH_DATE":"2021-04-29","PERIAPSIS":"545.964","TLE_LINE1":"1 48288U 21036N   22031.53326276  .00000664  00000-0  63474-4 0  9998","EPHEMERIS_TYPE":"0","REV_AT_EPOCH":"4308","TIME_SYSTEM":"UTC","PERIOD":"95.592","DECAY_DATE":null,"GP_ID":"195025127","RCS_SIZE":"LARGE","RA_OF_ASC_NODE":"327.1088","MEAN_MOTION_DDOT":"0.0000000000000"},{"REV_AT_EPOCH":"4250","EPHEMERIS_TYPE":"0","TLE_LINE1":"1 48289U 21036P   22031.52957588  .00000579  00000-0  57760-4 0  9990","PERIAPSIS":"546.031","LAUNCH_DATE":"2021-04-29","SEMIMAJOR_AXIS":"6925.348","APOAPSIS":"548.394","BSTAR":"0.00005776000000","MEAN_MOTION_DDOT":"0.0000000000000","RA_OF_ASC_NODE":"327.1115","RCS_SIZE":"LARGE","GP_ID":"195019786","DECAY_DATE":null,"PERIOD":"95.592","TIME_SYSTEM":"UTC","MEAN_MOTION_DOT":"0.00000579","EPOCH":"2022-01-31T12:42:35.356032","MEAN_ELEMENT_THEORY":"SGP4","INCLINATION":"53.0551","ECCENTRICITY":"0.00017060","MEAN_MOTION":"15.06400299","NORAD_CAT_ID":"48289","CENTER_NAME":"EARTH","OBJECT_NAME":"STARLINK-2545","OBJECT_TYPE":"PAYLOAD","COUNTRY_CODE":"US","ARG_OF_PERICENTER":"67.0181","OBJECT_ID":"2021-036P","REF_FRAME":"TEME","SITE":"AFETR","TLE_LINE2":"2 48289  53.0551 327.1115 0001706  67.0181 293.0988 15.06400299 42505","MEAN_ANOMALY":"293.0988","CLASSIFICATION_TYPE":"U","FILE":"3288447","ELEMENT_SET_NO":"999"}];
